[{"OBJECT_NAME":"STARLINK-3595","OBJECT_ID":"2022-022AU","EPOCH":"2026-03-09T22:32:24.505728","MEAN_MOTION":15.08798956,"ECCENTRICITY":0.00015385,"INCLINATION":53.2185,"RA_OF_ASC_NODE":357.9999,"ARG_OF_PERICENTER":99.9713,"MEAN_ANOMALY":260.1453,"EPHEMERIS_TYPE":0,"CLASSIFICATION_TYPE":"U","NORAD_CAT_ID":51894,"ELEMENT_SET_NO":999,"REV_AT_EPOCH":22334,"BSTAR":0.00052510238,"MEAN_MOTION_DOT":8.07e-5,"MEAN_MOTION_DDOT":0},{"OBJECT_NAME":"NOAA 17 DEB","OBJECT_ID":"2002-032BW","EPOCH":"2026-03-08T22:40:23.580768","MEAN_MOTION":15.05196658,"ECCENTRICITY":0.00149213,"INCLINATION":98.7181,"RA_OF_ASC_NODE":121.0481,"ARG_OF_PERICENTER":217.4424,"MEAN_ANOMALY":142.5761,"EPHEMERIS_TYPE":0,"CLASSIFICATION_TYPE":"U","NORAD_CAT_ID":48737,"ELEMENT_SET_NO":999,"REV_AT_EPOCH":26108,"BSTAR":0.0055556624,"MEAN_MOTION_DOT":0.00080221,"MEAN_MOTION_DDOT":0}]
